[{"OBJECT_NAME":"STARLINK-5953","OBJECT_ID":"2023-078AJ","EPOCH":"2026-03-09T22:00:21.196800","MEAN_MOTION":14.98328807,"ECCENTRICITY":0.00025563,"INCLINATION":70.0008,"RA_OF_ASC_NODE":343.9061,"ARG_OF_PERICENTER":270.8954,"MEAN_ANOMALY":89.1912,"EPHEMERIS_TYPE":0,"CLASSIFICATION_TYPE":"U","NORAD_CAT_ID":56799,"ELEMENT_SET_NO":999,"REV_AT_EPOCH":15271,"BSTAR":-4.599535e-6,"MEAN_MOTION_DOT":-1.48e-6,"MEAN_MOTION_DDOT":0},{"OBJECT_NAME":"CZ-2C DEB","OBJECT_ID":"2014-066E","EPOCH":"2026-03-09T21:55:34.712544","MEAN_MOTION":14.96320405,"ECCENTRICITY":0.00459749,"INCLINATION":97.9301,"RA_OF_ASC_NODE":44.7594,"ARG_OF_PERICENTER":158.4857,"MEAN_ANOMALY":201.831,"EPHEMERIS_TYPE":0,"CLASSIFICATION_TYPE":"U","NORAD_CAT_ID":40290,"ELEMENT_SET_NO":999,"REV_AT_EPOCH":60512,"BSTAR":0.0018751551,"MEAN_MOTION_DOT":0.00021654,"MEAN_MOTION_DDOT":0}]
